start=new Date('2022-11-19T00:00:00.000Z').valueOf();
sats=[{"MEAN_MOTION_DOT":"0.00001571","EPHEMERIS_TYPE":"0","RCS_SIZE":"LARGE","BSTAR":"0.00011677000000","SITE":"AFETR","APOAPSIS":"540.796","CLASSIFICATION_TYPE":"U","ELEMENT_SET_NO":"999","PERIOD":"95.438","FILE":"3662753","REF_FRAME":"TEME","MEAN_ANOMALY":"301.1796","PERIAPSIS":"538.712","OBJECT_ID":"2022-076AY","ARG_OF_PERICENTER":"58.9344","TLE_LINE2":"2 53032  53.2184 103.1338 0001506  58.9344 301.1796 15.08837221 20750","INCLINATION":"53.2184","TIME_SYSTEM":"UTC","EPOCH":"2022-11-18T13:22:04.270368","GP_ID":"218169797","OBJECT_TYPE":"PAYLOAD","DECAY_DATE":null,"MEAN_MOTION":"15.08837221","MEAN_MOTION_DDOT":"0.0000000000000","LAUNCH_DATE":"2022-07-07","COUNTRY_CODE":"US","TLE_LINE1":"1 53032U 22076AY  22322.55699387  .00001571  00000-0  11677-3 0  9992","MEAN_ELEMENT_THEORY":"SGP4","RA_OF_ASC_NODE":"103.1338","REV_AT_EPOCH":"2075","CENTER_NAME":"EARTH","SEMIMAJOR_AXIS":"6917.889","ECCENTRICITY":"0.00015060","NORAD_CAT_ID":"53032","OBJECT_NAME":"STARLINK-4115"},{"FILE":"3662753","CLASSIFICATION_TYPE":"U","ELEMENT_SET_NO":"999","PERIOD":"95.438","APOAPSIS":"540.680","SITE":"AFETR","RCS_SIZE":"LARGE","BSTAR":"0.00002182400000","MEAN_MOTION_DOT":"0.00000059","EPHEMERIS_TYPE":"0","INCLINATION":"53.2173","TIME_SYSTEM":"UTC","TLE_LINE2":"2 53033  53.2173  92.0723 0001332  58.9312 301.1811 15.08835715 20928","ARG_OF_PERICENTER":"58.9312","OBJECT_ID":"2022-076AZ","MEAN_ANOMALY":"301.1811","PERIAPSIS":"538.837","REF_FRAME":"TEME","MEAN_MOTION_DDOT":"0.0000000000000","MEAN_MOTION":"15.08835715","DECAY_DATE":null,"EPOCH":"2022-11-18T19:07:50.276352","GP_ID":"218168992","OBJECT_TYPE":"PAYLOAD","SEMIMAJOR_AXIS":"6917.893","NORAD_CAT_ID":"53033","ECCENTRICITY":"0.00013320","OBJECT_NAME":"STARLINK-4167","CENTER_NAME":"EARTH","RA_OF_ASC_NODE":"92.0723","REV_AT_EPOCH":"2092","MEAN_ELEMENT_THEORY":"SGP4","COUNTRY_CODE":"US","TLE_LINE1":"1 53033U 22076AZ  22322.79710968  .00000059  00000-0  21824-4 0  9994","LAUNCH_DATE":"2022-07-07"},{"OBJECT_ID":"2022-076BA","REF_FRAME":"TEME","PERIAPSIS":"538.914","MEAN_ANOMALY":"299.2783","TLE_LINE2":"2 53034  53.2159  92.0536 0001230  60.8332 299.2783 15.08833698 20929","TIME_SYSTEM":"UTC","INCLINATION":"53.2159","ARG_OF_PERICENTER":"60.8332","RCS_SIZE":"LARGE","BSTAR":"-0.00000453140000","EPHEMERIS_TYPE":"0","MEAN_MOTION_DOT":"-0.00000360","PERIOD":"95.438","ELEMENT_SET_NO":"999","CLASSIFICATION_TYPE":"U","FILE":"3662753","SITE":"AFETR","APOAPSIS":"540.616","TLE_LINE1":"1 53034U 22076BA  22322.80079515 -.00000360  00000-0 -45314-5 0  9991","COUNTRY_CODE":"US","MEAN_ELEMENT_THEORY":"SGP4","LAUNCH_DATE":"2022-07-07","SEMIMAJOR_AXIS":"6917.900","NORAD_CAT_ID":"53034","OBJECT_NAME":"STARLINK-4151","ECCENTRICITY":"0.00012300","REV_AT_EPOCH":"2092","RA_OF_ASC_NODE":"92.0536","CENTER_NAME":"EARTH","DECAY_DATE":null,"MEAN_MOTION":"15.08833698","OBJECT_TYPE":"PAYLOAD","GP_ID":"218169158","EPOCH":"2022-11-18T19:13:08.700960","MEAN_MOTION_DDOT":"0.0000000000000"},{"TLE_LINE2":"2 53035  53.2185  92.7025 0001457  52.7194 307.3931 15.08842492 20902","TIME_SYSTEM":"UTC","INCLINATION":"53.2185","ARG_OF_PERICENTER":"52.7194","OBJECT_ID":"2022-076BB","REF_FRAME":"TEME","PERIAPSIS":"538.730","MEAN_ANOMALY":"307.3931","PERIOD":"95.437","CLASSIFICATION_TYPE":"U","ELEMENT_SET_NO":"999","FILE":"3662753","SITE":"AFETR","APOAPSIS":"540.746","BSTAR":"0.00024305000000","RCS_SIZE":"LARGE","EPHEMERIS_TYPE":"0","MEAN_MOTION_DOT":"0.00003583","NORAD_CAT_ID":"53035","SEMIMAJOR_AXIS":"6917.873","ECCENTRICITY":"0.00014570","OBJECT_NAME":"STARLINK-4157","REV_AT_EPOCH":"2090","RA_OF_ASC_NODE":"92.7025","CENTER_NAME":"EARTH","TLE_LINE1":"1 53035U 22076BB  22322.65728145  .00003583  00000-0  24305-3 0  9998","COUNTRY_CODE":"US","MEAN_ELEMENT_THEORY":"SGP4","LAUNCH_DATE":"2022-07-07","MEAN_MOTION_DDOT":"0.0000000000000","DECAY_DATE":null,"MEAN_MOTION":"15.08842492","OBJECT_TYPE":"PAYLOAD","GP_ID":"218169643","EPOCH":"2022-11-18T15:46:29.117280"},{"LAUNCH_DATE":"2022-07-07","MEAN_ELEMENT_THEORY":"SGP4","COUNTRY_CODE":"US","TLE_LINE1":"1 53036U 22076BC  22322.38863640  .00001829  00000-0  13298-3 0  9999","CENTER_NAME":"EARTH","RA_OF_ASC_NODE":"93.9079","REV_AT_EPOCH":"2086","ECCENTRICITY":"0.00016800","SEMIMAJOR_AXIS":"6917.881","NORAD_CAT_ID":"53036","OBJECT_NAME":"STARLINK-4155","EPOCH":"2022-11-18T09:19:38.184960","GP_ID":"218139036","OBJECT_TYPE":"PAYLOAD","MEAN_MOTION":"15.08839885","DECAY_DATE":null,"MEAN_MOTION_DDOT":"0.0000000000000","MEAN_ANOMALY":"303.9563","PERIAPSIS":"538.584","REF_FRAME":"TEME","OBJECT_ID":"2022-076BC","ARG_OF_PERICENTER":"56.1589","INCLINATION":"53.2191","TIME_SYSTEM":"UTC","TLE_LINE2":"2 53036  53.2191  93.9079 0001680  56.1589 303.9563 15.08839885 20866","EPHEMERIS_TYPE":"0","MEAN_MOTION_DOT":"0.00001829","BSTAR":"0.00013298000000","RCS_SIZE":"MEDIUM","APOAPSIS":"540.908","SITE":"AFETR","FILE":"3662515","CLASSIFICATION_TYPE":"U","ELEMENT_SET_NO":"999","PERIOD":"95.438"},{"ARG_OF_PERICENTER":"61.7745","TIME_SYSTEM":"UTC","INCLINATION":"53.2204","TLE_LINE2":"2 53037  53.2204  92.7227 0001882  61.7745 298.3437 15.08834630 20909","PERIAPSIS":"538.460","MEAN_ANOMALY":"298.3437","REF_FRAME":"TEME","OBJECT_ID":"2022-076BD","APOAPSIS":"541.064","SITE":"AFETR","FILE":"3662753","PERIOD":"95.438","CLASSIFICATION_TYPE":"U","ELEMENT_SET_NO":"999","MEAN_MOTION_DOT":"0.00000353","EPHEMERIS_TYPE":"0","BSTAR":"0.00004030400000","RCS_SIZE":"LARGE","CENTER_NAME":"EARTH","REV_AT_EPOCH":"2090","RA_OF_ASC_NODE":"92.7227","SEMIMAJOR_AXIS":"6917.897","NORAD_CAT_ID":"53037","ECCENTRICITY":"0.00018820","OBJECT_NAME":"STARLINK-4153","LAUNCH_DATE":"2022-07-07","MEAN_ELEMENT_THEORY":"SGP4","TLE_LINE1":"1 53037U 22076BD  22322.64990993  .00000353  00000-0  40304-4 0  9991","COUNTRY_CODE":"US","MEAN_MOTION_DDOT":"0.0000000000000","OBJECT_TYPE":"PAYLOAD","GP_ID":"218168651","EPOCH":"2022-11-18T15:35:52.217952","MEAN_MOTION":"15.08834630","DECAY_DATE":null},{"CENTER_NAME":"EARTH","REV_AT_EPOCH":"2090","RA_OF_ASC_NODE":"92.7407","NORAD_CAT_ID":"53038","SEMIMAJOR_AXIS":"6917.912","ECCENTRICITY":"0.00019780","OBJECT_NAME":"STARLINK-4156","LAUNCH_DATE":"2022-07-07","MEAN_ELEMENT_THEORY":"SGP4","TLE_LINE1":"1 53038U 22076BE  22322.64624219 -.00001612  00000-0 -83239-4 0  9992","COUNTRY_CODE":"US","MEAN_MOTION_DDOT":"0.0000000000000","GP_ID":"218168816","OBJECT_TYPE":"PAYLOAD","EPOCH":"2022-11-18T15:30:35.325216","MEAN_MOTION":"15.08829618","DECAY_DATE":null,"ARG_OF_PERICENTER":"66.5388","TIME_SYSTEM":"UTC","INCLINATION":"53.2176","TLE_LINE2":"2 53038  53.2176  92.7407 0001978  66.5388 293.5812 15.08829618 20904","PERIAPSIS":"538.409","MEAN_ANOMALY":"293.5812","REF_FRAME":"TEME","OBJECT_ID":"2022-076BE","APOAPSIS":"541.145","SITE":"AFETR","FILE":"3662753","PERIOD":"95.438","CLASSIFICATION_TYPE":"U","ELEMENT_SET_NO":"999","MEAN_MOTION_DOT":"-0.00001612","EPHEMERIS_TYPE":"0","RCS_SIZE":"LARGE","BSTAR":"-0.00008323900000"},{"NORAD_CAT_ID":"53043","SEMIMAJOR_AXIS":"6941.115","ECCENTRICITY":"0.00028760","OBJECT_NAME":"STARLINK-4362","CENTER_NAME":"EARTH","REV_AT_EPOCH":"1984","RA_OF_ASC_NODE":"141.8706","MEAN_ELEMENT_THEORY":"SGP4","COUNTRY_CODE":"US","TLE_LINE1":"1 53043U 22077A   22322.76830524  .00003800  00000-0  30016-3 0  9993","LAUNCH_DATE":"2022-07-11","MEAN_MOTION_DDOT":"0.0000000000000","MEAN_MOTION":"15.01270257","DECAY_DATE":null,"EPOCH":"2022-11-18T18:26:21.572736","OBJECT_TYPE":"PAYLOAD","GP_ID":"218169324","INCLINATION":"97.6533","TIME_SYSTEM":"UTC","TLE_LINE2":"2 53043  97.6533 141.8706 0002876  19.8297 340.3038 15.01270257 19849","ARG_OF_PERICENTER":"19.8297","OBJECT_ID":"2022-077A","MEAN_ANOMALY":"340.3038","PERIAPSIS":"560.984","REF_FRAME":"TEME","FILE":"3662753","ELEMENT_SET_NO":"999","CLASSIFICATION_TYPE":"U","PERIOD":"95.919","APOAPSIS":"564.976","SITE":"AFWTR","RCS_SIZE":"LARGE","BSTAR":"0.00030016000000","MEAN_MOTION_DOT":"0.00003800","EPHEMERIS_TYPE":"0"},{"CENTER_NAME":"EARTH","REV_AT_EPOCH":"1984","RA_OF_ASC_NODE":"141.8609","SEMIMAJOR_AXIS":"6941.149","NORAD_CAT_ID":"53044","OBJECT_NAME":"STARLINK-4349","ECCENTRICITY":"0.00026830","LAUNCH_DATE":"2022-07-11","MEAN_ELEMENT_THEORY":"SGP4","TLE_LINE1":"1 53044U 22077B   22322.76461531  .00000365  00000-0  33027-4 0  9991","COUNTRY_CODE":"US","MEAN_MOTION_DDOT":"0.0000000000000","GP_ID":"218169798","OBJECT_TYPE":"PAYLOAD","EPOCH":"2022-11-18T18:21:02.762784","MEAN_MOTION":"15.01259151","DECAY_DATE":null,"ARG_OF_PERICENTER":"18.6857","TIME_SYSTEM":"UTC","INCLINATION":"97.6520","TLE_LINE2":"2 53044  97.6520 141.8609 0002683  18.6857 341.4465 15.01259151 19849","PERIAPSIS":"561.152","MEAN_ANOMALY":"341.4465","REF_FRAME":"TEME","OBJECT_ID":"2022-077B","APOAPSIS":"564.877","SITE":"AFWTR","FILE":"3662753","PERIOD":"95.919","ELEMENT_SET_NO":"999","CLASSIFICATION_TYPE":"U","EPHEMERIS_TYPE":"0","MEAN_MOTION_DOT":"0.00000365","RCS_SIZE":"LARGE","BSTAR":"0.00003302700000"},{"OBJECT_ID":"2022-077C","MEAN_ANOMALY":"335.1388","PERIAPSIS":"561.177","REF_FRAME":"TEME","INCLINATION":"97.6525","TIME_SYSTEM":"UTC","TLE_LINE2":"2 53045  97.6525 141.8604 0002615  24.9962 335.1388 15.01266474 19842","ARG_OF_PERICENTER":"24.9962","RCS_SIZE":"LARGE","BSTAR":"0.00016183000000","MEAN_MOTION_DOT":"0.00002021","EPHEMERIS_TYPE":"0","FILE":"3662753","CLASSIFICATION_TYPE":"U","ELEMENT_SET_NO":"999","PERIOD":"95.919","APOAPSIS":"564.807","SITE":"AFWTR","MEAN_ELEMENT_THEORY":"SGP4","COUNTRY_CODE":"US","TLE_LINE1":"1 53045U 22077C   22322.76299752  .00002021  00000-0  16183-3 0  9990","LAUNCH_DATE":"2022-07-11","SEMIMAJOR_AXIS":"6941.127","NORAD_CAT_ID":"53045","ECCENTRICITY":"0.00026150","OBJECT_NAME":"STARLINK-4350","CENTER_NAME":"EARTH","RA_OF_ASC_NODE":"141.8604","REV_AT_EPOCH":"1984","MEAN_MOTION":"15.01266474","DECAY_DATE":null,"EPOCH":"2022-11-18T18:18:42.985728","OBJECT_TYPE":"PAYLOAD","GP_ID":"218168993","MEAN_MOTION_DDOT":"0.0000000000000"}];
